ONEWEB-0598             
1 55154U 23004Q   26102.23986430  .00000088  00000+0  21250-3 0  9993
2 55154  87.8914  34.1794 0002309  61.7991 298.3370 13.11421852157254
ONEWEB-0599             
1 55155U 23004R   26102.26417488  .00000078  00000+0  16783-3 0  9993
2 55155  87.9186  18.9591 0002086  78.5150 281.6215 13.17651432158807
ONEWEB-0614             
1 55156U 23004S   26102.23476136 -.00000117  00000+0 -36631-3 0  9996
2 55156  87.8914  34.1885 0001671  82.0385 278.0933 13.11417603157193
ONEWEB-0616             
1 55157U 23004T   26102.23042867 -.00000198  00000+0 -54213-3 0  9992
2 55157  87.9191  18.9682 0002897  86.3917 273.7546 13.17648652159017
ONEWEB-0617             
1 55158U 23004U   26102.29918875 -.00000481  00000+0 -13930-2 0  9995
2 55158  87.8928  34.1624 0001438  78.9429 281.1861 13.11417107157223
ONEWEB-0618             
1 55159U 23004V   26102.31034938  .00004199  00000+0  23867-3 0  9997
2 55159  86.9132 204.3479 0013226 167.7061 192.4504 15.12549188172309
ONEWEB-0619             
1 55160U 23004W   26102.26249383 -.00000012  00000+0 -62841-4 0  9993
2 55160  87.9206  18.9372 0001835  93.1959 266.9383 13.17647991158913
ONEWEB-0620             
1 55161U 23004X   26102.21780346 -.00000463  00000+0 -13411-2 0  9995
2 55161  87.8917  34.1915 0001807  69.4507 290.6815 13.11415718157185
ONEWEB-0621             
1 55162U 23004Y   26102.24493725  .00000308  00000+0  83424-3 0  9999
2 55162  87.8924  34.1693 0001696  83.5078 276.6243 13.11417663157161
ONEWEB-0622             
1 55163U 23004Z   26102.25003079  .00000499  00000+0  13709-2 0  9999
2 55163  87.8924  34.1699 0001157  69.2203 290.9049 13.11417524157159
ONEWEB-0623             
1 55164U 23004AA  26102.25743382  .00000025  00000+0  31314-4 0  9997
2 55164  87.9183  18.9763 0001183  97.0911 263.0355 13.17652365158909
ONEWEB-0624             
1 55165U 23004AB  26102.12163036 -.00000088  00000+0 -27771-3 0  9998
2 55165  87.9015   3.7201 0001631  83.8071 276.3244 13.12925139159408
ONEWEB-0625             
1 55166U 23004AC  26102.01949689  .00000002  00000+0 -28107-4 0  9993
2 55166  87.9188  19.0175 0001979  81.8079 278.3277 13.17647553158864
ONEWEB-0626             
1 55167U 23004AD  26102.16125452  .00000074  00000+0  15744-3 0  9994
2 55167  87.9186  18.9895 0001975  65.5061 294.6277 13.17650362158881
ONEWEB-0627             
1 55168U 23004AE  26101.99755288  .00000040  00000+0  69162-4 0  9998
2 55168  87.9185  19.0221 0001339  89.1504 270.9781 13.17649615158868
ONEWEB-0628             
1 55169U 23004AF  26102.15492279  .00000052  00000+0  10970-3 0  9991
2 55169  87.9014   3.7685 0001352  99.9653 260.1628 13.12442978159379
