[{"OBJECT_NAME":"ONEWEB-0598","OBJECT_ID":"2023-004Q","EPOCH":"2026-04-12T05:45:24.275520","MEAN_MOTION":13.11421852,"ECCENTRICITY":0.0002309,"INCLINATION":87.8914,"RA_OF_ASC_NODE":34.1794,"ARG_OF_PERICENTER":61.7991,"MEAN_ANOMALY":298.337,"EPHEMERIS_TYPE":0,"CLASSIFICATION_TYPE":"U","NORAD_CAT_ID":55154,"ELEMENT_SET_NO":999,"REV_AT_EPOCH":15725,"BSTAR":0.0002125,"MEAN_MOTION_DOT":8.8e-07,"MEAN_MOTION_DDOT":0.0},{"OBJECT_NAME":"ONEWEB-0599","OBJECT_ID":"2023-004R","EPOCH":"2026-04-12T06:20:24.709632","MEAN_MOTION":13.17651432,"ECCENTRICITY":0.0002086,"INCLINATION":87.9186,"RA_OF_ASC_NODE":18.9591,"ARG_OF_PERICENTER":78.515,"MEAN_ANOMALY":281.6215,"EPHEMERIS_TYPE":0,"CLASSIFICATION_TYPE":"U","NORAD_CAT_ID":55155,"ELEMENT_SET_NO":999,"REV_AT_EPOCH":15880,"BSTAR":0.00016783,"MEAN_MOTION_DOT":7.8e-07,"MEAN_MOTION_DDOT":0.0},{"OBJECT_NAME":"ONEWEB-0614","OBJECT_ID":"2023-004S","EPOCH":"2026-04-12T05:38:03.381504","MEAN_MOTION":13.11417603,"ECCENTRICITY":0.0001671,"INCLINATION":87.8914,"RA_OF_ASC_NODE":34.1885,"ARG_OF_PERICENTER":82.0385,"MEAN_ANOMALY":278.0933,"EPHEMERIS_TYPE":0,"CLASSIFICATION_TYPE":"U","NORAD_CAT_ID":55156,"ELEMENT_SET_NO":999,"REV_AT_EPOCH":15719,"BSTAR":-0.00036631,"MEAN_MOTION_DOT":-1.17e-06,"MEAN_MOTION_DDOT":0.0},{"OBJECT_NAME":"ONEWEB-0616","OBJECT_ID":"2023-004T","EPOCH":"2026-04-12T05:31:49.037088","MEAN_MOTION":13.17648652,"ECCENTRICITY":0.0002897,"INCLINATION":87.9191,"RA_OF_ASC_NODE":18.9682,"ARG_OF_PERICENTER":86.3917,"MEAN_ANOMALY":273.7546,"EPHEMERIS_TYPE":0,"CLASSIFICATION_TYPE":"U","NORAD_CAT_ID":55157,"ELEMENT_SET_NO":999,"REV_AT_EPOCH":15901,"BSTAR":-0.00054213,"MEAN_MOTION_DOT":-1.98e-06,"MEAN_MOTION_DDOT":0.0},{"OBJECT_NAME":"ONEWEB-0617","OBJECT_ID":"2023-004U","EPOCH":"2026-04-12T07:10:49.908000","MEAN_MOTION":13.11417107,"ECCENTRICITY":0.0001438,"INCLINATION":87.8928,"RA_OF_ASC_NODE":34.1624,"ARG_OF_PERICENTER":78.9429,"MEAN_ANOMALY":281.1861,"EPHEMERIS_TYPE":0,"CLASSIFICATION_TYPE":"U","NORAD_CAT_ID":55158,"ELEMENT_SET_NO":999,"REV_AT_EPOCH":15722,"BSTAR":-0.0013930000000000001,"MEAN_MOTION_DOT":-4.81e-06,"MEAN_MOTION_DDOT":0.0},{"OBJECT_NAME":"ONEWEB-0618","OBJECT_ID":"2023-004V","EPOCH":"2026-04-12T07:26:54.186432","MEAN_MOTION":15.12549188,"ECCENTRICITY":0.0013226,"INCLINATION":86.9132,"RA_OF_ASC_NODE":204.3479,"ARG_OF_PERICENTER":167.7061,"MEAN_ANOMALY":192.4504,"EPHEMERIS_TYPE":0,"CLASSIFICATION_TYPE":"U","NORAD_CAT_ID":55159,"ELEMENT_SET_NO":999,"REV_AT_EPOCH":17230,"BSTAR":0.00023867,"MEAN_MOTION_DOT":4.199e-05,"MEAN_MOTION_DDOT":0.0},{"OBJECT_NAME":"ONEWEB-0619","OBJECT_ID":"2023-004W","EPOCH":"2026-04-12T06:17:59.466912","MEAN_MOTION":13.17647991,"ECCENTRICITY":0.0001835,"INCLINATION":87.9206,"RA_OF_ASC_NODE":18.9372,"ARG_OF_PERICENTER":93.1959,"MEAN_ANOMALY":266.9383,"EPHEMERIS_TYPE":0,"CLASSIFICATION_TYPE":"U","NORAD_CAT_ID":55160,"ELEMENT_SET_NO":999,"REV_AT_EPOCH":15891,"BSTAR":-6.2841e-05,"MEAN_MOTION_DOT":-1.2e-07,"MEAN_MOTION_DDOT":0.0},{"OBJECT_NAME":"ONEWEB-0620","OBJECT_ID":"2023-004X","EPOCH":"2026-04-12T05:13:38.218944","MEAN_MOTION":13.11415718,"ECCENTRICITY":0.0001807,"INCLINATION":87.8917,"RA_OF_ASC_NODE":34.1915,"ARG_OF_PERICENTER":69.4507,"MEAN_ANOMALY":290.6815,"EPHEMERIS_TYPE":0,"CLASSIFICATION_TYPE":"U","NORAD_CAT_ID":55161,"ELEMENT_SET_NO":999,"REV_AT_EPOCH":15718,"BSTAR":-0.0013411,"MEAN_MOTION_DOT":-4.63e-06,"MEAN_MOTION_DDOT":0.0},{"OBJECT_NAME":"ONEWEB-0621","OBJECT_ID":"2023-004Y","EPOCH":"2026-04-12T05:52:42.578400","MEAN_MOTION":13.11417663,"ECCENTRICITY":0.0001696,"INCLINATION":87.8924,"RA_OF_ASC_NODE":34.1693,"ARG_OF_PERICENTER":83.5078,"MEAN_ANOMALY":276.6243,"EPHEMERIS_TYPE":0,"CLASSIFICATION_TYPE":"U","NORAD_CAT_ID":55162,"ELEMENT_SET_NO":999,"REV_AT_EPOCH":15716,"BSTAR":0.00083424,"MEAN_MOTION_DOT":3.08e-06,"MEAN_MOTION_DDOT":0.0},{"OBJECT_NAME":"ONEWEB-0622","OBJECT_ID":"2023-004Z","EPOCH":"2026-04-12T06:00:02.660256","MEAN_MOTION":13.11417524,"ECCENTRICITY":0.0001157,"INCLINATION":87.8924,"RA_OF_ASC_NODE":34.1699,"ARG_OF_PERICENTER":69.2203,"MEAN_ANOMALY":290.9049,"EPHEMERIS_TYPE":0,"CLASSIFICATION_TYPE":"U","NORAD_CAT_ID":55163,"ELEMENT_SET_NO":999,"REV_AT_EPOCH":15715,"BSTAR":0.0013709,"MEAN_MOTION_DOT":4.99e-06,"MEAN_MOTION_DDOT":0.0},{"OBJECT_NAME":"ONEWEB-0623","OBJECT_ID":"2023-004AA","EPOCH":"2026-04-12T06:10:42.282048","MEAN_MOTION":13.17652365,"ECCENTRICITY":0.0001183,"INCLINATION":87.9183,"RA_OF_ASC_NODE":18.9763,"ARG_OF_PERICENTER":97.0911,"MEAN_ANOMALY":263.0355,"EPHEMERIS_TYPE":0,"CLASSIFICATION_TYPE":"U","NORAD_CAT_ID":55164,"ELEMENT_SET_NO":999,"REV_AT_EPOCH":15890,"BSTAR":3.1314e-05,"MEAN_MOTION_DOT":2.5e-07,"MEAN_MOTION_DDOT":0.0},{"OBJECT_NAME":"ONEWEB-0624","OBJECT_ID":"2023-004AB","EPOCH":"2026-04-12T02:55:08.863104","MEAN_MOTION":13.12925139,"ECCENTRICITY":0.0001631,"INCLINATION":87.9015,"RA_OF_ASC_NODE":3.7201,"ARG_OF_PERICENTER":83.8071,"MEAN_ANOMALY":276.3244,"EPHEMERIS_TYPE":0,"CLASSIFICATION_TYPE":"U","NORAD_CAT_ID":55165,"ELEMENT_SET_NO":999,"REV_AT_EPOCH":15940,"BSTAR":-0.00027771,"MEAN_MOTION_DOT":-8.8e-07,"MEAN_MOTION_DDOT":0.0},{"OBJECT_NAME":"ONEWEB-0625","OBJECT_ID":"2023-004AC","EPOCH":"2026-04-12T00:28:04.531296","MEAN_MOTION":13.17647553,"ECCENTRICITY":0.0001979,"INCLINATION":87.9188,"RA_OF_ASC_NODE":19.0175,"ARG_OF_PERICENTER":81.8079,"MEAN_ANOMALY":278.3277,"EPHEMERIS_TYPE":0,"CLASSIFICATION_TYPE":"U","NORAD_CAT_ID":55166,"ELEMENT_SET_NO":999,"REV_AT_EPOCH":15886,"BSTAR":-2.8107e-05,"MEAN_MOTION_DOT":2e-08,"MEAN_MOTION_DDOT":0.0},{"OBJECT_NAME":"ONEWEB-0626","OBJECT_ID":"2023-004AD","EPOCH":"2026-04-12T03:52:12.390528","MEAN_MOTION":13.17650362,"ECCENTRICITY":0.0001975,"INCLINATION":87.9186,"RA_OF_ASC_NODE":18.9895,"ARG_OF_PERICENTER":65.5061,"MEAN_ANOMALY":294.6277,"EPHEMERIS_TYPE":0,"CLASSIFICATION_TYPE":"U","NORAD_CAT_ID":55167,"ELEMENT_SET_NO":999,"REV_AT_EPOCH":15888,"BSTAR":0.00015744,"MEAN_MOTION_DOT":7.4e-07,"MEAN_MOTION_DDOT":0.0},{"OBJECT_NAME":"ONEWEB-0627","OBJECT_ID":"2023-004AE","EPOCH":"2026-04-11T23:56:28.568832","MEAN_MOTION":13.17649615,"ECCENTRICITY":0.0001339,"INCLINATION":87.9185,"RA_OF_ASC_NODE":19.0221,"ARG_OF_PERICENTER":89.1504,"MEAN_ANOMALY":270.9781,"EPHEMERIS_TYPE":0,"CLASSIFICATION_TYPE":"U","NORAD_CAT_ID":55168,"ELEMENT_SET_NO":999,"REV_AT_EPOCH":15886,"BSTAR":6.9162e-05,"MEAN_MOTION_DOT":4e-07,"MEAN_MOTION_DDOT":0.0},{"OBJECT_NAME":"ONEWEB-0628","OBJECT_ID":"2023-004AF","EPOCH":"2026-04-12T03:43:05.329056","MEAN_MOTION":13.12442978,"ECCENTRICITY":0.0001352,"INCLINATION":87.9014,"RA_OF_ASC_NODE":3.7685,"ARG_OF_PERICENTER":99.9653,"MEAN_ANOMALY":260.1628,"EPHEMERIS_TYPE":0,"CLASSIFICATION_TYPE":"U","NORAD_CAT_ID":55169,"ELEMENT_SET_NO":999,"REV_AT_EPOCH":15937,"BSTAR":0.00010970000000000001,"MEAN_MOTION_DOT":5.2e-07,"MEAN_MOTION_DDOT":0.0}]